{
  "norad_id": 52494,
  "name": "STARLINK-3857",
  "history": [
    {
      "epoch": "2026-03-28T22:52:04.623456",
      "apogee_km": 540.6776662887487,
      "perigee_km": 538.7448194896851,
      "latitude_deg": 41.29592357360542,
      "longitude_deg": -119.12819616007619,
      "semi_major_axis_km": 6917.848242889217,
      "eccentricity": 0.0001397,
      "inclination_deg": 53.2184,
      "raan_deg": 322.645,
      "arg_perigee_deg": 91.1524,
      "mean_anomaly_deg": 268.9629,
      "mean_motion_rev_day": 15.08850517
    }
  ]
}